[
    {
        "Altitude(m)": 702986.9217999487,
        "Argument of Periapsis(deg)": 0.004556048474650827,
        "Eccentricity": 0.0,
        "Inclination(deg)": 45.0,
        "Latitude(deg)": 19.51448701989636,
        "Longitude(deg)": -30.93140977395445,
        "Mean Anomaly(deg)": -208.11401334100768,
        "RAAN(deg)": 269.99569922341675,
        "Satellite Name": "Constellation 1 1197",
        "Satellite Number": 1197,
        "Semi-Major Axis(m)": 7083131.272910544,
        "Time(s)": 76
    },
    {
        "Altitude(m)": 702983.8080718091,
        "Argument of Periapsis(deg)": 0.004615996480896233,
        "Eccentricity": 0.0,
        "Inclination(deg)": 45.0,
        "Latitude(deg)": 19.4740667143214,
        "Longitude(deg)": -30.88730746497033,
        "Mean Anomaly(deg)": -208.05331220075777,
        "RAAN(deg)": 269.99564263425117,
        "Satellite Name": "Constellation 1 1197",
        "Satellite Number": 1197,
        "Semi-Major Axis(m)": 7083131.272910544,
        "Time(s)": 77
    },
    {
        "Altitude(m)": 702980.7086625616,
        "Argument of Periapsis(deg)": 0.004675944487141638,
        "Eccentricity": 0.0,
        "Inclination(deg)": 45.0,
        "Latitude(deg)": 19.433633430557318,
        "Longitude(deg)": -30.843229070436035,
        "Mean Anomaly(deg)": -207.99261106050784,
        "RAAN(deg)": 269.99558604508553,
        "Satellite Name": "Constellation 1 1197",
        "Satellite Number": 1197,
        "Semi-Major Axis(m)": 7083131.272910544,
        "Time(s)": 78
    },
    {
        "Altitude(m)": 702977.623603035,
        "Argument of Periapsis(deg)": 0.004735892493387044,
        "Eccentricity": 0.0,
        "Inclination(deg)": 45.0,
        "Latitude(deg)": 19.393187203924498,
        "Longitude(deg)": -30.799174532559892,
        "Mean Anomaly(deg)": -207.93190992025802,
        "RAAN(deg)": 269.99552945592,
        "Satellite Name": "Constellation 1 1197",
        "Satellite Number": 1197,
        "Semi-Major Axis(m)": 7083131.272910544,
        "Time(s)": 79
    },
    {
        "Altitude(m)": 702974.552924011,
        "Argument of Periapsis(deg)": 0.004795840499632449,
        "Eccentricity": 0.0,
        "Inclination(deg)": 45.0,
        "Latitude(deg)": 19.352728069696028,
        "Longitude(deg)": -30.75514379357942,
        "Mean Anomaly(deg)": -207.87120878000806,
        "RAAN(deg)": 269.9954728667544,
        "Satellite Name": "Constellation 1 1197",
        "Satellite Number": 1197,
        "Semi-Major Axis(m)": 7083131.272910544,
        "Time(s)": 80
    },
    {
        "Altitude(m)": 702971.4966562074,
        "Argument of Periapsis(deg)": 0.004855788505877855,
        "Eccentricity": 0.0,
        "Inclination(deg)": 45.0,
        "Latitude(deg)": 19.31225606309836,
        "Longitude(deg)": -30.711136795761448,
        "Mean Anomaly(deg)": -207.8105076397582,
        "RAAN(deg)": 269.9954162775889,
        "Satellite Name": "Constellation 1 1197",
        "Satellite Number": 1197,
        "Semi-Major Axis(m)": 7083131.272910544,
        "Time(s)": 81
    },
    {
        "Altitude(m)": 702968.4548302918,
        "Argument of Periapsis(deg)": 0.00491573651212326,
        "Eccentricity": 0.0,
        "Inclination(deg)": 45.0,
        "Latitude(deg)": 19.27177121931062,
        "Longitude(deg)": -30.66715364949865,
        "Mean Anomaly(deg)": -207.74980649950822,
        "RAAN(deg)": 269.9953596884233,
        "Satellite Name": "Constellation 1 1197",
        "Satellite Number": 1197,
        "Semi-Major Axis(m)": 7083131.272910544,
        "Time(s)": 82
    },
    {
        "Altitude(m)": 702965.4274768758,
        "Argument of Periapsis(deg)": 0.004975684518368666,
        "Eccentricity": 0.0,
        "Inclination(deg)": 45.0,
        "Latitude(deg)": 19.23127357346613,
        "Longitude(deg)": -30.62319396092253,
        "Mean Anomaly(deg)": -207.68910535925838,
        "RAAN(deg)": 269.9953030992577,
        "Satellite Name": "Constellation 1 1197",
        "Satellite Number": 1197,
        "Semi-Major Axis(m)": 7083131.272910544,
        "Time(s)": 83
    },
    {
        "Altitude(m)": 702962.414626511,
        "Argument of Periapsis(deg)": 0.005035632524614072,
        "Eccentricity": 0.0,
        "Inclination(deg)": 45.0,
        "Latitude(deg)": 19.19076316065081,
        "Longitude(deg)": -30.57925784048446,
        "Mean Anomaly(deg)": -207.62840421900853,
        "RAAN(deg)": 269.99524651009216,
        "Satellite Name": "Constellation 1 1197",
        "Satellite Number": 1197,
        "Semi-Major Axis(m)": 7083131.272910544,
        "Time(s)": 84
    },
    {
        "Altitude(m)": 702959.416309705,
        "Argument of Periapsis(deg)": 0.0050955805308594785,
        "Eccentricity": 0.0,
        "Inclination(deg)": 45.0,
        "Latitude(deg)": 19.150240015904277,
        "Longitude(deg)": -30.535345230568364,
        "Mean Anomaly(deg)": -207.56770307875854,
        "RAAN(deg)": 269.9951899209266,
        "Satellite Name": "Constellation 1 1197",
        "Satellite Number": 1197,
        "Semi-Major Axis(m)": 7083131.272910544,
        "Time(s)": 85
    },
    {
        "Altitude(m)": 702956.4325568869,
        "Argument of Periapsis(deg)": 0.005155528537104883,
        "Eccentricity": 0.0,
        "Inclination(deg)": 45.0,
        "Latitude(deg)": 19.10970417421995,
        "Longitude(deg)": -30.491456073587788,
        "Mean Anomaly(deg)": -207.5070019385087,
        "RAAN(deg)": 269.99513333176105,
        "Satellite Name": "Constellation 1 1197",
        "Satellite Number": 1197,
        "Semi-Major Axis(m)": 7083131.272910544,
        "Time(s)": 86
    },
    {
        "Altitude(m)": 702953.4633984544,
        "Argument of Periapsis(deg)": 0.0052154765433502885,
        "Eccentricity": 0.0,
        "Inclination(deg)": 45.0,
        "Latitude(deg)": 19.06915567054477,
        "Longitude(deg)": -30.447590311985458,
        "Mean Anomaly(deg)": -207.44630079825876,
        "RAAN(deg)": 269.9950767425955,
        "Satellite Name": "Constellation 1 1197",
        "Satellite Number": 1197,
        "Semi-Major Axis(m)": 7083131.272910544,
        "Time(s)": 87
    },
    {
        "Altitude(m)": 702950.5088647255,
        "Argument of Periapsis(deg)": 0.005275424549595694,
        "Eccentricity": 0.0,
        "Inclination(deg)": 45.0,
        "Latitude(deg)": 19.028594539779764,
        "Longitude(deg)": -30.40374788823416,
        "Mean Anomaly(deg)": -207.38559965800883,
        "RAAN(deg)": 269.99502015342983,
        "Satellite Name": "Constellation 1 1197",
        "Satellite Number": 1197,
        "Semi-Major Axis(m)": 7083131.272910544,
        "Time(s)": 88
    },
    {
        "Altitude(m)": 702947.5689859842,
        "Argument of Periapsis(deg)": 0.0053353725558411,
        "Eccentricity": 0.0,
        "Inclination(deg)": 45.0,
        "Latitude(deg)": 18.988020816779567,
        "Longitude(deg)": -30.359928912932762,
        "Mean Anomaly(deg)": -207.32489851775898,
        "RAAN(deg)": 269.9949635642643,
        "Satellite Name": "Constellation 1 1197",
        "Satellite Number": 1197,
        "Semi-Major Axis(m)": 7083131.272910544,
        "Time(s)": 89
    },
    {
        "Altitude(m)": 702944.6437924403,
        "Argument of Periapsis(deg)": 0.005395320562086505,
        "Eccentricity": 0.0,
        "Inclination(deg)": 45.0,
        "Latitude(deg)": 18.947434536353665,
        "Longitude(deg)": -30.316132992419096,
        "Mean Anomaly(deg)": -207.26419737750905,
        "RAAN(deg)": 269.99490697509873,
        "Satellite Name": "Constellation 1 1197",
        "Satellite Number": 1197,
        "Semi-Major Axis(m)": 7083131.272910544,
        "Time(s)": 90
    },
    {
        "Altitude(m)": 702941.7333142537,
        "Argument of Periapsis(deg)": 0.00545526856833191,
        "Eccentricity": 0.0,
        "Inclination(deg)": 45.0,
        "Latitude(deg)": 18.90683573326506,
        "Longitude(deg)": -30.272360237351798,
        "Mean Anomaly(deg)": -207.20349623725923,
        "RAAN(deg)": 269.9948503859332,
        "Satellite Name": "Constellation 1 1197",
        "Satellite Number": 1197,
        "Semi-Major Axis(m)": 7083131.272910544,
        "Time(s)": 91
    },
    {
        "Altitude(m)": 702938.8375815263,
        "Argument of Periapsis(deg)": 0.005515216574577317,
        "Eccentricity": 0.0,
        "Inclination(deg)": 45.0,
        "Latitude(deg)": 18.866224442231243,
        "Longitude(deg)": -30.228610590322027,
        "Mean Anomaly(deg)": -207.14279509700927,
        "RAAN(deg)": 269.9947937967676,
        "Satellite Name": "Constellation 1 1197",
        "Satellite Number": 1197,
        "Semi-Major Axis(m)": 7083131.272910544,
        "Time(s)": 92
    },
    {
        "Altitude(m)": 702935.9566243045,
        "Argument of Periapsis(deg)": 0.005575164580822722,
        "Eccentricity": 0.0,
        "Inclination(deg)": 45.0,
        "Latitude(deg)": 18.825600697924305,
        "Longitude(deg)": -30.18488399395112,
        "Mean Anomaly(deg)": -207.08209395675942,
        "RAAN(deg)": 269.99473720760204,
        "Satellite Name": "Constellation 1 1197",
        "Satellite Number": 1197,
        "Semi-Major Axis(m)": 7083131.272910544,
        "Time(s)": 93
    },
    {
        "Altitude(m)": 702933.0904725739,
        "Argument of Periapsis(deg)": 0.005635112587068129,
        "Eccentricity": 0.0,
        "Inclination(deg)": 45.0,
        "Latitude(deg)": 18.784964534970687,
        "Longitude(deg)": -30.141180390889946,
        "Mean Anomaly(deg)": -207.02139281650952,
        "RAAN(deg)": 269.99468061843646,
        "Satellite Name": "Constellation 1 1197",
        "Satellite Number": 1197,
        "Semi-Major Axis(m)": 7083131.272910544,
        "Time(s)": 94
    }
]